H1 CPF 01  gfz 2021 03 17 01  5761 terrasarx 
H2 0702601  6201 31698    2021 03 17 00 59 42 2021 03 22 00 00 42   120 1 1  0 0 0
H9
10 0 59294  71982.000000  0     187673.289    921279.487  -6830678.310
10 0 59294  72102.000000  0     981688.312    460780.507  -6809282.620
10 0 59294  72222.000000  0    1750457.858    -21370.872  -6669138.273
10 0 59294  72342.000000  0    2480359.985   -516265.085  -6412656.075
10 0 59294  72462.000000  0    3158588.490  -1014533.831  -6044252.576
10 0 59294  72582.000000  0    3773375.381  -1506522.511  -5570281.201
10 0 59294  72702.000000  0    4314195.506  -1982472.719  -4998934.146
10 0 59294  72822.000000  0    4771951.557  -2432713.890  -4340112.136
10 0 59294  72942.000000  0    5139133.528  -2847858.388  -3605263.182
10 0 59294  73062.000000  0    5409950.733  -3218996.539  -2807192.677
10 0 59294  73182.000000  0    5580433.134  -3537887.550  -1959845.515
10 0 59294  73302.000000  0    5648497.551  -3797141.494  -1078064.060
10 0 59294  73422.000000  0    5613977.559  -3990388.556   -177326.495
10 0 59294  73542.000000  0    5478615.306  -4112430.121    726530.081
10 0 59294  73662.000000  0    5246014.382  -4159368.648   1617596.103
10 0 59294  73782.000000  0    4921554.178  -4128711.028   2480179.289
10 0 59294  73902.000000  0    4512268.258  -4019442.016   3299089.270
10 0 59294  74022.000000  0    4026691.364  -3832068.122   4059911.366
10 0 59294  74142.000000  0    3474678.269  -3568631.079   4749265.409
10 0 59294  74262.000000  0    2867197.316  -3232688.819   5355043.004
10 0 59294  74382.000000  0    2216107.381  -2829265.627   5866618.533
10 0 59294  74502.000000  0    1533921.092  -2364773.198   6275032.015
10 0 59294  74622.000000  0     833560.507  -1846904.989   6573139.802
10 0 59294  74742.000000  0     128110.318  -1284505.751   6755733.448
10 0 59294  74862.000000  0    -569426.886   -687418.333   6819625.130
10 0 59294  74982.000000  0   -1246369.260    -66310.479   6763699.156
10 0 59294  75102.000000  0   -1890585.233    567515.341   6588930.236
10 0 59294  75222.000000  0   -2490710.204   1202326.921   6298367.651
10 0 59294  75342.000000  0   -3036347.416   1826178.430   5897085.541
10 0 59294  75462.000000  0   -3518249.928   2427134.731   5392100.339
10 0 59294  75582.000000  0   -3928481.566   2993501.052   4792254.746
10 0 59294  75702.000000  0   -4260552.612   3514052.858   4108068.203
10 0 59294  75822.000000  0   -4509528.368   3978261.537   3351556.833
10 0 59294  75942.000000  0   -4672107.354   4376511.285   2536024.027
10 0 59294  76062.000000  0   -4746666.190   4700302.852   1675825.414
10 0 59294  76182.000000  0   -4733270.472   4942437.623    786111.463
10 0 59294  76302.000000  0   -4633651.875   5097176.374   -117445.800
10 0 59294  76422.000000  0   -4451152.408   5160371.315  -1018936.836
10 0 59294  76542.000000  0   -4190634.016   5129566.067  -1902506.077
10 0 59294  76662.000000  0   -3858356.303   5004059.406  -2752638.474
10 0 59294  76782.000000  0   -3461829.427   4784934.307  -3554438.704
10 0 59294  76902.000000  0   -3009642.579   4475049.117  -4293894.535
10 0 59294  77022.000000  0   -2511275.424   4078994.198  -4958119.032
10 0 59294  77142.000000  0   -1976897.541   3603016.875  -5535568.285
10 0 59294  77262.000000  0   -1417160.301   3054916.222  -6016234.241
10 0 59294  77382.000000  0    -842984.350   2443908.217  -6391808.525
10 0 59294  77502.000000  0    -265348.000   1780465.955  -6655814.158
10 0 59294  77622.000000  0     304918.855   1076139.048  -6803706.166
10 0 59294  77742.000000  0     857332.538    343354.568  -6832941.997
10 0 59294  77862.000000  0    1381944.488   -404798.251  -6743021.141
10 0 59294  77982.000000  0    1869515.998  -1154797.048  -6535491.184
10 0 59294  78102.000000  0    2311676.877  -1892924.131  -6213923.863
10 0 59294  78222.000000  0    2701067.515  -2605511.058  -5783860.450
10 0 59294  78342.000000  0    3031461.863  -3279188.120  -5252727.893
10 0 59294  78462.000000  0    3297870.201  -3901136.322  -4629721.073
10 0 59294  78582.000000  0    3496616.492  -4459332.286  -3925652.542
10 0 59294  78702.000000  0    3625391.198  -4942783.697  -3152775.634
10 0 59294  78822.000000  0    3683279.475  -5341752.968  -2324579.709
10 0 59294  78942.000000  0    3670760.693  -5647961.880  -1455557.497
10 0 59294  79062.000000  0    3589679.988  -5854770.120   -560951.062
10 0 59294  79182.000000  0    3443191.470  -5957324.755    343520.292
10 0 59294  79302.000000  0    3235673.389  -5952674.610   1241942.890
10 0 59294  79422.000000  0    2972619.428  -5839848.046   2118497.598
10 0 59294  79542.000000  0    2660506.071  -5619888.613   2957748.367
10 0 59294  79662.000000  0    2306640.458  -5295850.185   3744920.896
10 0 59294  79782.000000  0    1918994.162  -4872752.781   4466167.556
10 0 59294  79902.000000  0    1506026.089  -4357498.970   5108814.039
10 0 59294  80022.000000  0    1076499.901  -3758753.740   5661582.352
10 0 59294  80142.000000  0     639297.890  -3086789.605   6114786.916
10 0 59294  80262.000000  0     203237.447  -2353302.173   6460497.687
10 0 59294  80382.000000  0    -223105.437  -1571201.536   6692671.796
10 0 59294  80502.000000  0    -631563.146   -754382.973   6807253.566
10 0 59294  80622.000000  0   -1014531.654     82521.454   6802242.049
10 0 59294  80742.000000  0   -1365111.331    924405.321   6677723.597
10 0 59294  80862.000000  0   -1677230.786   1755959.829   6435870.121
10 0 59294  80982.000000  0   -1945752.299   2561951.273   6080903.757
10 0 59294  81102.000000  0   -2166557.108   3327500.440   5619027.583
10 0 59294  81222.000000  0   -2336608.962   4038358.956   5058323.277
10 0 59294  81342.000000  0   -2453996.041   4681179.203   4408616.782
10 0 59294  81462.000000  0   -2517949.268   5243772.013   3681311.106
10 0 59294  81582.000000  0   -2528836.617   5715346.263   2889188.617
10 0 59294  81702.000000  0   -2488132.974   6086723.936   2046185.988
10 0 59294  81822.000000  0   -2398366.700   6350526.615   1167146.410
10 0 59294  81942.000000  0   -2263043.322   6501328.314    267552.843
10 0 59294  82062.000000  0   -2086548.627   6535770.566   -636752.110
10 0 59294  82182.000000  0   -1874033.805   6452637.185  -1529854.624
10 0 59294  82302.000000  0   -1631284.040   6252883.682  -2396061.717
10 0 59294  82422.000000  0   -1364574.622   5939618.974  -3220183.631
10 0 59294  82542.000000  0   -1080520.307   5518047.590  -3987801.818
10 0 59294  82662.000000  0    -785921.317   4995372.039  -4685521.226
10 0 59294  82782.000000  0    -487609.139   4380657.691  -5301199.679
10 0 59294  82902.000000  0    -192295.510   3684665.505  -5824152.532
10 0 59294  83022.000000  0      93572.304   2919654.318  -6245329.457
10 0 59294  83142.000000  0     363946.061   2099157.986  -6557459.472
10 0 59294  83262.000000  0     613298.586   1237744.476  -6755164.891
10 0 59294  83382.000000  0     836732.163    350758.795  -6835045.162
10 0 59294  83502.000000  0    1030071.046   -545946.168  -6795728.804
10 0 59294  83622.000000  0    1189936.814  -1436287.351  -6637893.285
10 0 59294  83742.000000  0    1313805.754  -2304231.854  -6364253.359
10 0 59294  83862.000000  0    1400048.523  -3134078.043  -5979520.697
10 0 59294  83982.000000  0    1447950.742  -3910736.591  -5490333.053
10 0 59294  84102.000000  0    1457713.428  -4620005.563  -4905149.430
10 0 59294  84222.000000  0    1430434.895  -5248831.848  -4234114.423
10 0 59294  84342.000000  0    1368072.797  -5785558.363  -3488893.827
10 0 59294  84462.000000  0    1273386.430  -6220150.093  -2682479.691
10 0 59294  84582.000000  0    1149861.778  -6544393.121  -1828968.951
10 0 59294  84702.000000  0    1001620.055  -6752062.278   -943318.190
10 0 59294  84822.000000  0     833310.657  -6839051.674    -41078.627
10 0 59294  84942.000000  0     649992.288  -6803463.906    861882.558
10 0 59294  85062.000000  0     457004.962  -6645656.321   1749668.817
10 0 59294  85182.000000  0     259835.993  -6368242.197   2606643.731
10 0 59294  85302.000000  0      63983.431  -5976044.651   3417716.474
10 0 59294  85422.000000  0    -125180.173  -5476004.747   4168613.845
10 0 59294  85542.000000  0    -302539.372  -4877050.350   4846134.307
10 0 59294  85662.000000  0    -463359.473  -4189926.814   5438381.338
10 0 59294  85782.000000  0    -603399.184  -3426994.592   5934970.825
10 0 59294  85902.000000  0    -719010.367  -2601996.681   6327209.490
10 0 59294  86022.000000  0    -807222.559  -1729803.882   6608239.161
10 0 59294  86142.000000  0    -865810.903   -826144.357   6773150.154
10 0 59294  86262.000000  0    -893346.883     92681.487   6819063.168
10 0 59294  86382.000000  0    -889230.519   1010095.485   6745176.576
99
